{"type": "FeatureCollection", "features": [ {"type": "Feature", "properties": {"norad_id": 35022, "name": "COSMOS 2251 DEB", "group": "cosmos-2251-debris", "lat": 61.97862021306961, "lon": -17.443064014501253, "alt_km": 678.968741929657, "timestamp": "2025-12-18T23:35:49.459024+00:00", "meta": {"OBJECT_NAME": "COSMOS 2251 DEB", "OBJECT_ID": "1993-036AGK", "EPOCH": "2025-12-15T14:45:27.251136", "MEAN_MOTION": 14.60846809, "ECCENTRICITY": 0.00465822, "INCLINATION": 74.027, "RA_OF_ASC_NODE": 316.4327, "ARG_OF_PERICENTER": 155.4398, "MEAN_ANOMALY": 204.9001, "EPHEMERIS_TYPE": 0, "CLASSIFICATION_TYPE": "U", "NORAD_CAT_ID": 35022, "ELEMENT_SET_NO": 999, "REV_AT_EPOCH": 59185, "BSTAR": 0.00033959453, "MEAN_MOTION_DOT": 1.655e-05, "MEAN_MOTION_DDOT": 0}, "tle": {"line1": "1 35022U 93036AGK 25349.61489874  .00001655  00000+0  33959-3 0  9991", "line2": "2 35022  74.0270 316.4327 0046582 155.4398 204.9001 14.60846809591850"}}, "geometry": {"type": "Point", "coordinates": [-17.443064014501253, 61.97862021306961]}}, {"type": "Feature", "properties": {"norad_id": 35023, "name": "COSMOS 2251 DEB", "group": "cosmos-2251-debris", "lat": -61.81932198806298, "lon": 167.69826193477337, "alt_km": 565.8186739110533, "timestamp": "2025-12-18T23:35:49.459034+00:00", "meta": {"OBJECT_NAME": "COSMOS 2251 DEB", "OBJECT_ID": "1993-036AGL", "EPOCH": "2025-12-17T20:40:11.589600", "MEAN_MOTION": 14.95254694, "ECCENTRICITY": 0.00337744, "INCLINATION": 74.0365, "RA_OF_ASC_NODE": 202.2564, "ARG_OF_PERICENTER": 279.291, "MEAN_ANOMALY": 97.2337, "EPHEMERIS_TYPE": 0, "CLASSIFICATION_TYPE": "U", "NORAD_CAT_ID": 35023, "ELEMENT_SET_NO": 999, "REV_AT_EPOCH": 88356, "BSTAR": 0.0011208664, "MEAN_MOTION_DOT": 0.00012461, "MEAN_MOTION_DDOT": 0}, "tle": {"line1": "1 35023U 93036AGL 25351.86124525  .00012461  00000+0  11209-2 0  9991", "line2": "2 35023  74.0365 202.2564 0033774 279.2910  97.2337 14.95254694883565"}}, "geometry": {"type": "Point", "coordinates": [167.69826193477337, -61.81932198806298]}}, {"type": "Feature", "properties": {"norad_id": 35025, "name": "COSMOS 2251 DEB", "group": "cosmos-2251-debris", "lat": -40.663975999464284, "lon": -114.9750734431883, "alt_km": 668.0237407802442, "timestamp": "2025-12-18T23:35:49.459045+00:00", "meta": {"OBJECT_NAME": "COSMOS 2251 DEB", "OBJECT_ID": "1993-036AGN", "EPOCH": "2025-12-18T12:48:02.645280", "MEAN_MOTION": 14.72736098, "ECCENTRICITY": 0.00854351, "INCLINATION": 73.9385, "RA_OF_ASC_NODE": 51.5768, "ARG_OF_PERICENTER": 323.1564, "MEAN_ANOMALY": 36.3755, "EPHEMERIS_TYPE": 0, "CLASSIFICATION_TYPE": "U", "NORAD_CAT_ID": 35025, "ELEMENT_SET_NO": 999, "REV_AT_EPOCH": 88728, "BSTAR": 0.00029025471, "MEAN_MOTION_DOT": 1.926e-05, "MEAN_MOTION_DDOT": 0}, "tle": {"line1": "1 35025U 93036AGN 25352.53336395  .00001926  00000+0  29025-3 0  9998", "line2": "2 35025  73.9385  51.5768 0085435 323.1564  36.3755 14.72736098887282"}}, "geometry": {"type": "Point", "coordinates": [-114.9750734431883, -40.663975999464284]}}, {"type": "Feature", "properties": {"norad_id": 35026, "name": "COSMOS 2251 DEB", "group": "cosmos-2251-debris", "lat": 23.12356093221016, "lon": -45.96797588119438, "alt_km": 664.72164002505, "timestamp": "2025-12-18T23:35:49.459055+00:00", "meta": {"OBJECT_NAME": "COSMOS 2251 DEB", "OBJECT_ID": "1993-036AGP", "EPOCH": "2025-12-18T03:45:00.139104", "MEAN_MOTION": 14.53626797, "ECCENTRICITY": 0.0082422, "INCLINATION": 74.047, "RA_OF_ASC_NODE": 308.5764, "ARG_OF_PERICENTER": 60.5026, "MEAN_ANOMALY": 318.4835, "EPHEMERIS_TYPE": 0, "CLASSIFICATION_TYPE": "U", "NORAD_CAT_ID": 35026, "ELEMENT_SET_NO": 999, "REV_AT_EPOCH": 88222, "BSTAR": 6.097601e-05, "MEAN_MOTION_DOT": 2.37e-06, "MEAN_MOTION_DDOT": 0}, "tle": {"line1": "1 35026U 93036AGP 25352.15625161  .00000237  00000+0  60976-4 0  9994", "line2": "2 35026  74.0470 308.5764 0082422  60.5026 318.4835 14.53626797882224"}}, "geometry": {"type": "Point", "coordinates": [-45.96797588119438, 23.12356093221016]}}, {"type": "Feature", "properties": {"norad_id": 35028, "name": "COSMOS 2251 DEB", "group": "cosmos-2251-debris", "lat": -22.787350026418224, "lon": 86.03898105529517, "alt_km": 767.3753598177436, "timestamp": "2025-12-18T23:35:49.459066+00:00", "meta": {"OBJECT_NAME": "COSMOS 2251 DEB", "OBJECT_ID": "1993-036AGR", "EPOCH": "2025-12-18T03:11:52.081152", "MEAN_MOTION": 14.56575396, "ECCENTRICITY": 0.00826724, "INCLINATION": 74.0383, "RA_OF_ASC_NODE": 260.7455, "ARG_OF_PERICENTER": 32.9493, "MEAN_ANOMALY": 35.4382, "EPHEMERIS_TYPE": 0, "CLASSIFICATION_TYPE": "U", "NORAD_CAT_ID": 35028, "ELEMENT_SET_NO": 999, "REV_AT_EPOCH": 88364, "BSTAR": 8.3392474e-05, "MEAN_MOTION_DOT": 3.58e-06, "MEAN_MOTION_DDOT": 0}, "tle": {"line1": "1 35028U 93036AGR 25352.13324168  .00000358  00000+0  83392-4 0  9998", "line2": "2 35028  74.0383 260.7455 0082672  32.9493  35.4382 14.56575396883644"}}, "geometry": {"type": "Point", "coordinates": [86.03898105529517, -22.787350026418224]}}, {"type": "Feature", "properties": {"norad_id": 35031, "name": "COSMOS 2251 DEB", "group": "cosmos-2251-debris", "lat": 60.2975917173081, "lon": -82.12438443454089, "alt_km": 756.6297461614004, "timestamp": "2025-12-18T23:35:49.459076+00:00", "meta": {"OBJECT_NAME": "COSMOS 2251 DEB", "OBJECT_ID": "1993-036AGU", "EPOCH": "2025-12-17T23:55:41.225088", "MEAN_MOTION": 14.38299529, "ECCENTRICITY": 0.00190755, "INCLINATION": 74.0382, "RA_OF_ASC_NODE": 249.5774, "ARG_OF_PERICENTER": 342.0186, "MEAN_ANOMALY": 18.0291, "EPHEMERIS_TYPE": 0, "CLASSIFICATION_TYPE": "U", "NORAD_CAT_ID": 35031, "ELEMENT_SET_NO": 999, "REV_AT_EPOCH": 65359, "BSTAR": 0.00013785455, "MEAN_MOTION_DOT": 3.94e-06, "MEAN_MOTION_DDOT": 0}, "tle": {"line1": "1 35031U 93036AGU 25351.99700492  .00000394  00000+0  13785-3 0  9991", "line2": "2 35031  74.0382 249.5774 0019075 342.0186  18.0291 14.38299529653593"}}, "geometry": {"type": "Point", "coordinates": [-82.12438443454089, 60.2975917173081]}}, {"type": "Feature", "properties": {"norad_id": 35032, "name": "COSMOS 2251 DEB", "group": "cosmos-2251-debris", "lat": 27.938780885191004, "lon": 4.091640430032253, "alt_km": 743.58520756697, "timestamp": "2025-12-18T23:35:49.459086+00:00", "meta": {"OBJECT_NAME": "COSMOS 2251 DEB", "OBJECT_ID": "1993-036AGV", "EPOCH": "2025-12-18T10:59:13.334208", "MEAN_MOTION": 14.58770343, "ECCENTRICITY": 0.0067994, "INCLINATION": 73.8514, "RA_OF_ASC_NODE": 356.2639, "ARG_OF_PERICENTER": 206.6367, "MEAN_ANOMALY": 304.5499, "EPHEMERIS_TYPE": 0, "CLASSIFICATION_TYPE": "U", "NORAD_CAT_ID": 35032, "ELEMENT_SET_NO": 999, "REV_AT_EPOCH": 87757, "BSTAR": 0.00069326657, "MEAN_MOTION_DOT": 3.313e-05, "MEAN_MOTION_DDOT": 0}, "tle": {"line1": "1 35032U 93036AGV 25352.45779322  .00003313  00000+0  69327-3 0  9999", "line2": "2 35032  73.8514 356.2639 0067994 206.6367 304.5499 14.58770343877572"}}, "geometry": {"type": "Point", "coordinates": [4.091640430032253, 27.938780885191004]}}, {"type": "Feature", "properties": {"norad_id": 35033, "name": "COSMOS 2251 DEB", "group": "cosmos-2251-debris", "lat": -54.11589970488602, "lon": 8.154813317611364, "alt_km": 720.612727814053, "timestamp": "2025-12-18T23:35:49.459096+00:00", "meta": {"OBJECT_NAME": "COSMOS 2251 DEB", "OBJECT_ID": "1993-036AGW", "EPOCH": "2025-12-17T18:22:28.174368", "MEAN_MOTION": 14.50953363, "ECCENTRICITY": 0.00144706, "INCLINATION": 74.025, "RA_OF_ASC_NODE": 167.1194, "ARG_OF_PERICENTER": 273.5227, "MEAN_ANOMALY": 86.4279, "EPHEMERIS_TYPE": 0, "CLASSIFICATION_TYPE": "U", "NORAD_CAT_ID": 35033, "ELEMENT_SET_NO": 999, "REV_AT_EPOCH": 66000, "BSTAR": 0.00050181876, "MEAN_MOTION_DOT": 1.958e-05, "MEAN_MOTION_DDOT": 0}, "tle": {"line1": "1 35033U 93036AGW 25351.76560387  .00001958  00000+0  50182-3 0  9994", "line2": "2 35033  74.0250 167.1194 0014470 273.5227  86.4279 14.50953363660004"}}, "geometry": {"type": "Point", "coordinates": [8.154813317611364, -54.11589970488602]}}, {"type": "Feature", "properties": {"norad_id": 35038, "name": "COSMOS 2251 DEB", "group": "cosmos-2251-debris", "lat": -15.74119291608895, "lon": 26.76575888514038, "alt_km": 740.9000500392603, "timestamp": "2025-12-18T23:35:49.459107+00:00", "meta": {"OBJECT_NAME": "COSMOS 2251 DEB", "OBJECT_ID": "1993-036AHB", "EPOCH": "2025-12-16T02:43:57.942048", "MEAN_MOTION": 14.25166694, "ECCENTRICITY": 0.01140711, "INCLINATION": 74.1077, "RA_OF_ASC_NODE": 36.5236, "ARG_OF_PERICENTER": 19.3791, "MEAN_ANOMALY": 9.3469, "EPHEMERIS_TYPE": 0, "CLASSIFICATION_TYPE": "U", "NORAD_CAT_ID": 35038, "ELEMENT_SET_NO": 999, "REV_AT_EPOCH": 85617, "BSTAR": 0.00096319549, "MEAN_MOTION_DOT": 2.397e-05, "MEAN_MOTION_DDOT": 0}, "tle": {"line1": "1 35038U 93036AHB 25350.11386507  .00002397  00000+0  96320-3 0  9999", "line2": "2 35038  74.1077  36.5236 0114071  19.3791   9.3469 14.25166694856178"}}, "geometry": {"type": "Point", "coordinates": [26.76575888514038, -15.74119291608895]}}, {"type": "Feature", "properties": {"norad_id": 35043, "name": "COSMOS 2251 DEB", "group": "cosmos-2251-debris", "lat": -73.88047553313436, "lon": -51.60287049952455, "alt_km": 586.2808657592013, "timestamp": "2025-12-18T23:35:49.459117+00:00", "meta": {"OBJECT_NAME": "COSMOS 2251 DEB", "OBJECT_ID": "1993-036AHG", "EPOCH": "2025-12-18T09:22:03.578880", "MEAN_MOTION": 14.77234349, "ECCENTRICITY": 0.00960967, "INCLINATION": 73.9519, "RA_OF_ASC_NODE": 34.4369, "ARG_OF_PERICENTER": 242.9214, "MEAN_ANOMALY": 116.2132, "EPHEMERIS_TYPE": 0, "CLASSIFICATION_TYPE": "U", "NORAD_CAT_ID": 35043, "ELEMENT_SET_NO": 999, "REV_AT_EPOCH": 67502, "BSTAR": 0.0030540152, "MEAN_MOTION_DOT": 0.00023411, "MEAN_MOTION_DDOT": 0}, "tle": {"line1": "1 35043U 93036AHG 25352.39031920  .00023411  00000+0  30540-2 0  9994", "line2": "2 35043  73.9519  34.4369 0096096 242.9214 116.2132 14.77234349675024"}}, "geometry": {"type": "Point", "coordinates": [-51.60287049952455, -73.88047553313436]}}]}